IRS-P5 (CARTOSAT-1)     
1 28649U 05017A   26204.31581786  .00001026  00000+0  10879-3 0  9991
2 28649  97.5308 225.7421 0000929  58.5890 301.5420 14.91132260149201
KAZEOSAT 1              
1 39731U 14024A   26204.86548716  .00000098  00000+0  42856-4 0  9998
2 39731  98.3190 276.3964 0001208  88.2872 271.8456 14.42039475643845
KAZEOSAT 2              
1 40010U 14033A   26204.80622294  .00000197  00000+0  28614-4 0  9994
2 40010  97.5403  42.4815 0008072 188.0542 172.0546 14.85507117654395
JASON-3                 
1 41240U 16002A   26204.81828123 -.00000045  00000+0  67311-4 0  9998
2 41240  66.0415  48.8219 0008121 270.0942  89.9146 12.87629000491964
KAZSTSAT                
1 43783U 18099AB  26204.52214128  .00000265  00000+0  25859-4 0  9996
2 43783  97.4301 234.8148 0007209 305.3153  54.7397 14.99961770416750
INSAT-3DS               
1 58990U 24033A   26204.84245840 -.00000151  00000+0  00000+0 0  9998
2 58990   0.0702 261.7061 0001280 217.0954 208.1041  1.00273491 47435
IONOSFERA-M 1           
1 61735U 24199A   26204.83351745  .00000027  00000+0  31779-4 0  9996
2 61735  98.7124  77.6104 0002007  60.9732 299.1647 14.22760354132914
IONOSFERA-M 2           
1 61736U 24199B   26204.86772715  .00000031  00000+0  33389-4 0  9998
2 61736  98.7122  77.5546 0000859 131.1608 228.9644 14.22763646136040
IONOSFERA-M 3           
1 64876U 25155A   26204.84789162  .00000044  00000+0  39526-4 0  9994
2 64876  98.6054 165.8345 0002467  99.3285 260.8172 14.21491966 51614
IONOSFERA-M 4           
1 64877U 25155B   26204.88266976  .00000043  00000+0  39139-4 0  9991
2 64877  98.6053 165.7854 0001913  90.7141 269.4256 14.21494433 51619
